[
    {
        "Altitude(m)": 558590.4770378689,
        "Argument of Periapsis(deg)": 0.026491964442854003,
        "Eccentricity": 0.0,
        "Inclination(deg)": 53.0,
        "Latitude(deg)": 47.408631369020576,
        "Longitude(deg)": 27.204317206854274,
        "Mean Anomaly(deg)": 113.09367147031037,
        "RAAN(deg)": 4.960573474112068,
        "Satellite Name": "Starlink Shell 1 26",
        "Satellite Number": 26,
        "Semi-Major Axis(m)": 6931778.249405717,
        "Time(s)": 760
    },
    {
        "Altitude(m)": 558523.6648140398,
        "Argument of Periapsis(deg)": 0.02684054292236524,
        "Eccentricity": 0.0,
        "Inclination(deg)": 53.0,
        "Latitude(deg)": 47.11543546077771,
        "Longitude(deg)": 27.977713893509716,
        "Mean Anomaly(deg)": 113.72050267386707,
        "RAAN(deg)": 4.960054704034595,
        "Satellite Name": "Starlink Shell 1 26",
        "Satellite Number": 26,
        "Semi-Major Axis(m)": 6931778.249405717,
        "Time(s)": 770
    },
    {
        "Altitude(m)": 558455.6220212867,
        "Argument of Periapsis(deg)": 0.027189121401876473,
        "Eccentricity": 0.0,
        "Inclination(deg)": 53.0,
        "Latitude(deg)": 46.81649527622747,
        "Longitude(deg)": 28.74213127647676,
        "Mean Anomaly(deg)": 114.34733387742378,
        "RAAN(deg)": 4.959535933957121,
        "Satellite Name": "Starlink Shell 1 26",
        "Satellite Number": 26,
        "Semi-Major Axis(m)": 6931778.249405717,
        "Time(s)": 780
    },
    {
        "Altitude(m)": 558386.3907416804,
        "Argument of Periapsis(deg)": 0.02753769988138771,
        "Eccentricity": 0.0,
        "Inclination(deg)": 53.0,
        "Latitude(deg)": 46.511932052475295,
        "Longitude(deg)": 29.49759314163124,
        "Mean Anomaly(deg)": 114.97416508098048,
        "RAAN(deg)": 4.959017163879649,
        "Satellite Name": "Starlink Shell 1 26",
        "Satellite Number": 26,
        "Semi-Major Axis(m)": 6931778.249405717,
        "Time(s)": 790
    },
    {
        "Altitude(m)": 558316.0138652733,
        "Argument of Periapsis(deg)": 0.02788627836089895,
        "Eccentricity": 0.0,
        "Inclination(deg)": 53.0,
        "Latitude(deg)": 46.20186596142239,
        "Longitude(deg)": 30.244131884999575,
        "Mean Anomaly(deg)": 115.60099628453722,
        "RAAN(deg)": 4.958498393802175,
        "Satellite Name": "Starlink Shell 1 26",
        "Satellite Number": 26,
        "Semi-Major Axis(m)": 6931778.249405717,
        "Time(s)": 800
    },
    {
        "Altitude(m)": 558244.5350687994,
        "Argument of Periapsis(deg)": 0.02823485684041019,
        "Eccentricity": 0.0,
        "Inclination(deg)": 53.0,
        "Latitude(deg)": 45.88641599786182,
        "Longitude(deg)": 30.981788468146227,
        "Mean Anomaly(deg)": 116.22782748809391,
        "RAAN(deg)": 4.957979623724704,
        "Satellite Name": "Starlink Shell 1 26",
        "Satellite Number": 26,
        "Semi-Major Axis(m)": 6931778.249405717,
        "Time(s)": 810
    },
    {
        "Altitude(m)": 558171.9987939638,
        "Argument of Periapsis(deg)": 0.028583435319921423,
        "Eccentricity": 0.0,
        "Inclination(deg)": 53.0,
        "Latitude(deg)": 45.56569987769046,
        "Longitude(deg)": 31.71061238200216,
        "Mean Anomaly(deg)": 116.85465869165063,
        "RAAN(deg)": 4.95746085364723,
        "Satellite Name": "Starlink Shell 1 26",
        "Satellite Number": 26,
        "Semi-Major Axis(m)": 6931778.249405717,
        "Time(s)": 820
    },
    {
        "Altitude(m)": 558098.4502253444,
        "Argument of Periapsis(deg)": 0.028932013799432665,
        "Eccentricity": 0.0,
        "Inclination(deg)": 53.0,
        "Latitude(deg)": 45.239833945891014,
        "Longitude(deg)": 32.43066010832047,
        "Mean Anomaly(deg)": 117.48148989520733,
        "RAAN(deg)": 4.956942083569757,
        "Satellite Name": "Starlink Shell 1 26",
        "Satellite Number": 26,
        "Semi-Major Axis(m)": 6931778.249405717,
        "Time(s)": 830
    },
    {
        "Altitude(m)": 558023.9352678703,
        "Argument of Periapsis(deg)": 0.029280592278943897,
        "Eccentricity": 0.0,
        "Inclination(deg)": 53.0,
        "Latitude(deg)": 44.90893309391677,
        "Longitude(deg)": 33.141995106298324,
        "Mean Anomaly(deg)": 118.10832109876407,
        "RAAN(deg)": 4.956423313492285,
        "Satellite Name": "Starlink Shell 1 26",
        "Satellite Number": 26,
        "Semi-Major Axis(m)": 6931778.249405717,
        "Time(s)": 840
    },
    {
        "Altitude(m)": 557948.5005239616,
        "Argument of Periapsis(deg)": 0.029629170758455132,
        "Eccentricity": 0.0,
        "Inclination(deg)": 53.0,
        "Latitude(deg)": 44.57311068608562,
        "Longitude(deg)": 33.844687813024855,
        "Mean Anomaly(deg)": 118.7351523023208,
        "RAAN(deg)": 4.955904543414812,
        "Satellite Name": "Starlink Shell 1 26",
        "Satellite Number": 26,
        "Semi-Major Axis(m)": 6931778.249405717,
        "Time(s)": 850
    },
    {
        "Altitude(m)": 557872.1932702478,
        "Argument of Periapsis(deg)": 0.02997774923796637,
        "Eccentricity": 0.0,
        "Inclination(deg)": 53.0,
        "Latitude(deg)": 44.23247849457232,
        "Longitude(deg)": 34.53881397807443,
        "Mean Anomaly(deg)": 119.36198350587748,
        "RAAN(deg)": 4.95538577333734,
        "Satellite Name": "Starlink Shell 1 26",
        "Satellite Number": 26,
        "Semi-Major Axis(m)": 6931778.249405717,
        "Time(s)": 860
    },
    {
        "Altitude(m)": 557795.0614339686,
        "Argument of Periapsis(deg)": 0.030326327717477602,
        "Eccentricity": 0.0,
        "Inclination(deg)": 53.0,
        "Latitude(deg)": 43.88714664258778,
        "Longitude(deg)": 35.22445553573851,
        "Mean Anomaly(deg)": 119.98881470943421,
        "RAAN(deg)": 4.954867003259867,
        "Satellite Name": "Starlink Shell 1 26",
        "Satellite Number": 26,
        "Semi-Major Axis(m)": 6931778.249405717,
        "Time(s)": 870
    },
    {
        "Altitude(m)": 557717.1535690017,
        "Argument of Periapsis(deg)": 0.030674906196988847,
        "Eccentricity": 0.0,
        "Inclination(deg)": 53.0,
        "Latitude(deg)": 43.5372235553115,
        "Longitude(deg)": 35.90169897283403,
        "Mean Anomaly(deg)": 120.61564591299091,
        "RAAN(deg)": 4.954348233182394,
        "Satellite Name": "Starlink Shell 1 26",
        "Satellite Number": 26,
        "Semi-Major Axis(m)": 6931778.249405717,
        "Time(s)": 880
    },
    {
        "Altitude(m)": 557638.518831537,
        "Argument of Periapsis(deg)": 0.031023484676500086,
        "Eccentricity": 0.0,
        "Inclination(deg)": 53.0,
        "Latitude(deg)": 43.18281591815653,
        "Longitude(deg)": 36.57063539517542,
        "Mean Anomaly(deg)": 121.24247711654765,
        "RAAN(deg)": 4.9538294631049204,
        "Satellite Name": "Starlink Shell 1 26",
        "Satellite Number": 26,
        "Semi-Major Axis(m)": 6931778.249405717,
        "Time(s)": 890
    },
    {
        "Altitude(m)": 557559.2069554564,
        "Argument of Periapsis(deg)": 0.03137206315601132,
        "Eccentricity": 0.0,
        "Inclination(deg)": 53.0,
        "Latitude(deg)": 42.82402864193663,
        "Longitude(deg)": 37.231360612218346,
        "Mean Anomaly(deg)": 121.86930832010438,
        "RAAN(deg)": 4.953310693027448,
        "Satellite Name": "Starlink Shell 1 26",
        "Satellite Number": 26,
        "Semi-Major Axis(m)": 6931778.249405717,
        "Time(s)": 900
    },
    {
        "Altitude(m)": 557479.2682273717,
        "Argument of Periapsis(deg)": 0.03172064163552255,
        "Eccentricity": 0.0,
        "Inclination(deg)": 53.0,
        "Latitude(deg)": 42.460964834509895,
        "Longitude(deg)": 37.88397372731652,
        "Mean Anomaly(deg)": 122.49613952366106,
        "RAAN(deg)": 4.9527919229499755,
        "Satellite Name": "Starlink Shell 1 26",
        "Satellite Number": 26,
        "Semi-Major Axis(m)": 6931778.249405717,
        "Time(s)": 910
    },
    {
        "Altitude(m)": 557398.7534613453,
        "Argument of Periapsis(deg)": 0.0320692201150338,
        "Eccentricity": 0.0,
        "Inclination(deg)": 53.0,
        "Latitude(deg)": 42.093725778486004,
        "Longitude(deg)": 38.5285772595138,
        "Mean Anomaly(deg)": 123.12297072721779,
        "RAAN(deg)": 4.952273152872503,
        "Satellite Name": "Starlink Shell 1 26",
        "Satellite Number": 26,
        "Semi-Major Axis(m)": 6931778.249405717,
        "Time(s)": 920
    },
    {
        "Altitude(m)": 557317.71397335,
        "Argument of Periapsis(deg)": 0.032417798594545036,
        "Eccentricity": 0.0,
        "Inclination(deg)": 53.0,
        "Latitude(deg)": 41.72241091458677,
        "Longitude(deg)": 39.16527728403394,
        "Mean Anomaly(deg)": 123.7498019307745,
        "RAAN(deg)": 4.95175438279503,
        "Satellite Name": "Starlink Shell 1 26",
        "Satellite Number": 26,
        "Semi-Major Axis(m)": 6931778.249405717,
        "Time(s)": 930
    },
    {
        "Altitude(m)": 557236.2015554049,
        "Argument of Periapsis(deg)": 0.03276637707405627,
        "Eccentricity": 0.0,
        "Inclination(deg)": 53.0,
        "Latitude(deg)": 41.34711783025852,
        "Longitude(deg)": 39.79418207851951,
        "Mean Anomaly(deg)": 124.3766331343312,
        "RAAN(deg)": 4.951235612717556,
        "Satellite Name": "Starlink Shell 1 26",
        "Satellite Number": 26,
        "Semi-Major Axis(m)": 6931778.249405717,
        "Time(s)": 940
    }
]